[{"CCSDS_OMM_VERS":"3.0","COMMENT":"GENERATED VIA SPACE-TRACK.ORG API","CREATION_DATE":"2026-03-27T22:26:21","ORIGINATOR":"18 SPCS","OBJECT_NAME":"FENGYUN 1C DEB","OBJECT_ID":"1999-025GV","CENTER_NAME":"EARTH","REF_FRAME":"TEME","TIME_SYSTEM":"UTC","MEAN_ELEMENT_THEORY":"SGP4","EPOCH":"2026-03-27T08:40:59.867328","MEAN_MOTION":"13.37535542","ECCENTRICITY":"0.03534070","INCLINATION":"98.6764","RA_OF_ASC_NODE":"231.6318","ARG_OF_PERICENTER":"175.7212","MEAN_ANOMALY":"184.7080","EPHEMERIS_TYPE":"0","CLASSIFICATION_TYPE":"U","NORAD_CAT_ID":"29899","ELEMENT_SET_NO":"999","REV_AT_EPOCH":"93483","BSTAR":"0.00028722000000","MEAN_MOTION_DOT":"0.00000182","MEAN_MOTION_DDOT":"0.0000000000000","SEMIMAJOR_AXIS":"7496.611","PERIOD":"107.661","APOAPSIS":"1383.411","PERIAPSIS":"853.540","OBJECT_TYPE":"DEBRIS","RCS_SIZE":"SMALL","COUNTRY_CODE":"PRC","LAUNCH_DATE":"1999-05-10","SITE":"TSC","DECAY_DATE":null,"FILE":"5101483","GP_ID":"317304442","TLE_LINE0":"0 FENGYUN 1C DEB","TLE_LINE1":"1 29899U 99025GV  26086.36180402  .00000182  00000-0  28722-3 0  9993","TLE_LINE2":"2 29899  98.6764 231.6318 0353407 175.7212 184.7080 13.37535542934833"},{"CCSDS_OMM_VERS":"3.0","COMMENT":"GENERATED VIA SPACE-TRACK.ORG API","CREATION_DATE":"2013-06-27T11:13:19","ORIGINATOR":"18 SPCS","OBJECT_NAME":"FENGYUN 1C DEB","OBJECT_ID":"1999-025GW","CENTER_NAME":"EARTH","REF_FRAME":"TEME","TIME_SYSTEM":"UTC","MEAN_ELEMENT_THEORY":"SGP4","EPOCH":"2013-06-25T19:13:22.830815","MEAN_MOTION":"15.69426119","ECCENTRICITY":"0.00574450","INCLINATION":"100.0683","RA_OF_ASC_NODE":"272.7367","ARG_OF_PERICENTER":"268.0724","MEAN_ANOMALY":"89.2565","EPHEMERIS_TYPE":"0","CLASSIFICATION_TYPE":"U","NORAD_CAT_ID":"29900","ELEMENT_SET_NO":"999","REV_AT_EPOCH":"32219","BSTAR":"0.17374000000000","MEAN_MOTION_DOT":"0.30625549","MEAN_MOTION_DDOT":"0.0000000000000","SEMIMAJOR_AXIS":"6738.680","PERIOD":"91.753","APOAPSIS":"399.255","PERIAPSIS":"321.835","OBJECT_TYPE":"DEBRIS","RCS_SIZE":"SMALL","COUNTRY_CODE":"PRC","LAUNCH_DATE":"1999-05-10","SITE":"TSC","DECAY_DATE":"2013-06-26","FILE":"1506352","GP_ID":"93192250","TLE_LINE0":"0 FENGYUN 1C DEB","TLE_LINE1":"1 29900U 99025GW  13176.80095869  .30625549  00000-0  17374+0 0  9993","TLE_LINE2":"2 29900 100.0683 272.7367 0057445 268.0724 089.2565 15.69426119322194"},{"CCSDS_OMM_VERS":"3.0","COMMENT":"GENERATED VIA SPACE-TRACK.ORG API","CREATION_DATE":"2026-03-28T16:56:20","ORIGINATOR":"18 SPCS","OBJECT_NAME":"FENGYUN 1C DEB","OBJECT_ID":"1999-025GX","CENTER_NAME":"EARTH","REF_FRAME":"TEME","TIME_SYSTEM":"UTC","MEAN_ELEMENT_THEORY":"SGP4","EPOCH":"2026-03-28T09:56:20.063040","MEAN_MOTION":"13.33327635","ECCENTRICITY":"0.03784650","INCLINATION":"98.7588","RA_OF_ASC_NODE":"248.0647","ARG_OF_PERICENTER":"22.2457","MEAN_ANOMALY":"30.1857","EPHEMERIS_TYPE":"0","CLASSIFICATION_TYPE":"U","NORAD_CAT_ID":"29901","ELEMENT_SET_NO":"999","REV_AT_EPOCH":"93327","BSTAR":"0.00032206000000","MEAN_MOTION_DOT":"0.00000202","MEAN_MOTION_DDOT":"0.0000000000000","SEMIMAJOR_AXIS":"7512.375","PERIOD":"108.000","APOAPSIS":"1418.557","PERIAPSIS":"849.923","OBJECT_TYPE":"DEBRIS","RCS_SIZE":"SMALL","COUNTRY_CODE":"PRC","LAUNCH_DATE":"1999-05-10","SITE":"TSC","DECAY_DATE":null,"FILE":"5104225","GP_ID":"317436950","TLE_LINE0":"0 FENGYUN 1C DEB","TLE_LINE1":"1 29901U 99025GX  26087.41412110  .00000202  00000-0  32206-3 0  9993","TLE_LINE2":"2 29901  98.7588 248.0647 0378465  22.2457  30.1857 13.33327635933278"},{"CCSDS_OMM_VERS":"3.0","COMMENT":"GENERATED VIA SPACE-TRACK.ORG API","CREATION_DATE":"2011-06-16T17:27:57","ORIGINATOR":"18 SPCS","OBJECT_NAME":"FENGYUN 1C DEB","OBJECT_ID":"1999-025GY","CENTER_NAME":"EARTH","REF_FRAME":"TEME","TIME_SYSTEM":"UTC","MEAN_ELEMENT_THEORY":"SGP4","EPOCH":"2011-06-15T12:51:23.760288","MEAN_MOTION":"16.12506365","ECCENTRICITY":"0.00118530","INCLINATION":"98.8030","RA_OF_ASC_NODE":"20.6910","ARG_OF_PERICENTER":"181.5261","MEAN_ANOMALY":"178.6477","EPHEMERIS_TYPE":"0","CLASSIFICATION_TYPE":"U","NORAD_CAT_ID":"29902","ELEMENT_SET_NO":"999","REV_AT_EPOCH":"24103","BSTAR":"0.00497940000000","MEAN_MOTION_DOT":"0.05528509","MEAN_MOTION_DDOT":"0.0000000000000","SEMIMAJOR_AXIS":"6618.117","PERIOD":"89.301","APOAPSIS":"247.827","PERIAPSIS":"232.138","OBJECT_TYPE":"DEBRIS","RCS_SIZE":"SMALL","COUNTRY_CODE":"PRC","LAUNCH_DATE":"1999-05-10","SITE":"TSC","DECAY_DATE":"2011-06-14","FILE":"1106748","GP_ID":"83598404","TLE_LINE0":"0 FENGYUN 1C DEB","TLE_LINE1":"1 29902U 99025GY  11166.53569167  .05528509  00000-0  49794-2 0  9993","TLE_LINE2":"2 29902 098.8030 020.6910 0011853 181.5261 178.6477 16.12506365241037"},{"CCSDS_OMM_VERS":"3.0","COMMENT":"GENERATED VIA SPACE-TRACK.ORG API","CREATION_DATE":"2025-04-25T22:26:40","ORIGINATOR":"18 SPCS","OBJECT_NAME":"FENGYUN 1C DEB","OBJECT_ID":"1999-025GZ","CENTER_NAME":"EARTH","REF_FRAME":"TEME","TIME_SYSTEM":"UTC","MEAN_ELEMENT_THEORY":"SGP4","EPOCH":"2025-04-25T20:46:37.327584","MEAN_MOTION":"16.17705547","ECCENTRICITY":"0.00193990","INCLINATION":"98.9065","RA_OF_ASC_NODE":"270.3326","ARG_OF_PERICENTER":"297.8795","MEAN_ANOMALY":"62.0522","EPHEMERIS_TYPE":"0","CLASSIFICATION_TYPE":"U","NORAD_CAT_ID":"29903","ELEMENT_SET_NO":"999","REV_AT_EPOCH":"96702","BSTAR":"0.00851810000000","MEAN_MOTION_DOT":"0.13986078","MEAN_MOTION_DDOT":"0.0000033828000","SEMIMAJOR_AXIS":"6603.926","PERIOD":"89.015","APOAPSIS":"238.602","PERIAPSIS":"212.980","OBJECT_TYPE":"DEBRIS","RCS_SIZE":"SMALL","COUNTRY_CODE":"PRC","LAUNCH_DATE":"1999-05-10","SITE":"TSC","DECAY_DATE":"2025-04-28","FILE":"4712131","GP_ID":"286341432","TLE_LINE0":"0 FENGYUN 1C DEB","TLE_LINE1":"1 29903U 99025GZ  25115.86570981  .13986078  33828-5  85181-2 0  9992","TLE_LINE2":"2 29903  98.9065 270.3326 0019399 297.8795  62.0522 16.17705547967027"},{"CCSDS_OMM_VERS":"3.0","COMMENT":"GENERATED VIA SPACE-TRACK.ORG API","CREATION_DATE":"2026-03-28T16:56:20","ORIGINATOR":"18 SPCS","OBJECT_NAME":"FENGYUN 1C DEB","OBJECT_ID":"1999-025HA","CENTER_NAME":"EARTH","REF_FRAME":"TEME","TIME_SYSTEM":"UTC","MEAN_ELEMENT_THEORY":"SGP4","EPOCH":"2026-03-28T09:25:24.705984","MEAN_MOTION":"14.44891266","ECCENTRICITY":"0.02070080","INCLINATION":"99.0245","RA_OF_ASC_NODE":"136.9597","ARG_OF_PERICENTER":"4.7207","MEAN_ANOMALY":"355.5870","EPHEMERIS_TYPE":"0","CLASSIFICATION_TYPE":"U","NORAD_CAT_ID":"29904","ELEMENT_SET_NO":"999","REV_AT_EPOCH":"583","BSTAR":"0.00037759000000","MEAN_MOTION_DOT":"0.00001650","MEAN_MOTION_DDOT":"0.0000000000000","SEMIMAJOR_AXIS":"7120.520","PERIOD":"99.661","APOAPSIS":"889.786","PERIAPSIS":"594.985","OBJECT_TYPE":"DEBRIS","RCS_SIZE":"SMALL","COUNTRY_CODE":"PRC","LAUNCH_DATE":"1999-05-10","SITE":"TSC","DECAY_DATE":null,"FILE":"5104226","GP_ID":"317436955","TLE_LINE0":"0 FENGYUN 1C DEB","TLE_LINE1":"1 29904U 99025HA  26087.39264706  .00001650  00000-0  37759-3 0  9995","TLE_LINE2":"2 29904  99.0245 136.9597 0207008   4.7207 355.5870 14.44891266  5836"},{"CCSDS_OMM_VERS":"3.0","COMMENT":"GENERATED VIA SPACE-TRACK.ORG API","CREATION_DATE":"2020-04-03T18:22:24","ORIGINATOR":"18 SPCS","OBJECT_NAME":"FENGYUN 1C DEB","OBJECT_ID":"1999-025HB","CENTER_NAME":"EARTH","REF_FRAME":"TEME","TIME_SYSTEM":"UTC","MEAN_ELEMENT_THEORY":"SGP4","EPOCH":"2020-04-03T07:39:07.708608","MEAN_MOTION":"16.08060430","ECCENTRICITY":"0.00137580","INCLINATION":"99.1742","RA_OF_ASC_NODE":"28.6539","ARG_OF_PERICENTER":"179.9064","MEAN_ANOMALY":"180.2218","EPHEMERIS_TYPE":"0","CLASSIFICATION_TYPE":"U","NORAD_CAT_ID":"29905","ELEMENT_SET_NO":"999","REV_AT_EPOCH":"70650","BSTAR":"0.01260000000000","MEAN_MOTION_DOT":"0.06440362","MEAN_MOTION_DDOT":"0.1521900000000","SEMIMAJOR_AXIS":"6630.306","PERIOD":"89.548","APOAPSIS":"261.293","PERIAPSIS":"243.049","OBJECT_TYPE":"DEBRIS","RCS_SIZE":"SMALL","COUNTRY_CODE":"PRC","LAUNCH_DATE":"1999-05-10","SITE":"TSC","DECAY_DATE":"2020-04-03","FILE":"2728165","GP_ID":"151537684","TLE_LINE0":"0 FENGYUN 1C DEB","TLE_LINE1":"1 29905U 99025HB  20094.31883922 +.06440362 +15219-0 +12600-1 0  9994","TLE_LINE2":"2 29905 099.1742 028.6539 0013758 179.9064 180.2218 16.08060430706500"},{"CCSDS_OMM_VERS":"3.0","COMMENT":"GENERATED VIA SPACE-TRACK.ORG API","CREATION_DATE":"2026-03-28T16:56:20","ORIGINATOR":"18 SPCS","OBJECT_NAME":"FENGYUN 1C DEB","OBJECT_ID":"1999-025HC","CENTER_NAME":"EARTH","REF_FRAME":"TEME","TIME_SYSTEM":"UTC","MEAN_ELEMENT_THEORY":"SGP4","EPOCH":"2026-03-28T06:03:26.254944","MEAN_MOTION":"14.51613193","ECCENTRICITY":"0.00370170","INCLINATION":"98.7026","RA_OF_ASC_NODE":"199.1734","ARG_OF_PERICENTER":"187.2416","MEAN_ANOMALY":"172.8248","EPHEMERIS_TYPE":"0","CLASSIFICATION_TYPE":"U","NORAD_CAT_ID":"29906","ELEMENT_SET_NO":"999","REV_AT_EPOCH":"99687","BSTAR":"0.00255370000000","MEAN_MOTION_DOT":"0.00010288","MEAN_MOTION_DDOT":"0.0000000000000","SEMIMAJOR_AXIS":"7098.522","PERIOD":"99.200","APOAPSIS":"746.663","PERIAPSIS":"694.110","OBJECT_TYPE":"DEBRIS","RCS_SIZE":"SMALL","COUNTRY_CODE":"PRC","LAUNCH_DATE":"1999-05-10","SITE":"TSC","DECAY_DATE":null,"FILE":"5104226","GP_ID":"317437455","TLE_LINE0":"0 FENGYUN 1C DEB","TLE_LINE1":"1 29906U 99025HC  26087.25238721  .00010288  00000-0  25537-2 0  9997","TLE_LINE2":"2 29906  98.7026 199.1734 0037017 187.2416 172.8248 14.51613193996876"}]